CZ-2C R/B               
1 54039U 22132E   26027.51125008  .00044857  00000+0  58881-3 0  9990
2 54039  97.2953  29.6999 0016740 239.3086 120.6521 15.58241456183955
GSLV R/B                
1 54149U 22138AN  26027.46643465  .00004903  00000+0  42840-3 0  9990
2 54149  87.3844 180.1580 0019743 305.0965  54.8415 14.96444031177765
XRISM                   
1 57800U 23137A   26027.16192222  .00008931  00000+0  51633-3 0  9999
2 57800  31.0008 192.1533 0008076 343.1535  16.8835 15.10948898131507
ACS3                    
1 59588U 24077B   26027.42922137  .00023532  00000+0  19605-1 0  9998
2 59588  97.2307 337.8136 0048424 212.6904 147.1260 13.87832752 88476
SZ-21 MODULE            
1 66515U 25246C   26027.51887075  .00040506  00000+0  39486-3 0  9997
2 66515  41.4755  96.1989 0003257 246.4080 113.6418 15.65446775 11617
